{
  "type": "FeatureCollection",
  "features": [
    {
      "type": "Feature",
      "properties": {
        "norad_id": 2807,
        "name": "OPS 7218 (TRANSIT 16)",
        "group": "nnss",
        "lat": 76.91339677962311,
        "lon": -4.956319408544801,
        "alt_km": 1046.0618527540446,
        "timestamp": "2025-12-24T03:53:29.915615+00:00",
        "meta_object_name": "OPS 7218 (TRANSIT 16)",
        "meta_object_id": "1967-048A",
        "meta_epoch": "2025-12-23T12:05:16.821888",
        "meta_mean_motion": 13.50724459,
        "meta_eccentricity": 0.0022159,
        "meta_inclination": 89.6733,
        "meta_ra_of_asc_node": 353.659,
        "meta_arg_of_pericenter": 85.416,
        "meta_mean_anomaly": 31.5054,
        "meta_ephemeris_type": 0,
        "meta_classification_type": "U",
        "meta_norad_cat_id": 2807,
        "meta_element_set_no": 999,
        "meta_rev_at_epoch": 88421,
        "meta_bstar": 0.00014065,
        "meta_mean_motion_dot": 1.01e-06,
        "meta_mean_motion_ddot": 0,
        "tle_line1": "1 02807U 67048A   25357.50366692  .00000101  00000+0  14065-3 0  9991",
        "tle_line2": "2 02807  89.6733 353.6590 0022159  85.4160  31.5054 13.50724459884210"
      },
      "geometry": {
        "type": "Point",
        "coordinates": [
          -4.956319408544801,
          76.91339677962311
        ]
      }
    },
    {
      "type": "Feature",
      "properties": {
        "norad_id": 2965,
        "name": "OPS 4947 (TRANSIT 17)",
        "group": "nnss",
        "lat": -74.09618036483437,
        "lon": -153.7960139612968,
        "alt_km": 1046.0842801715507,
        "timestamp": "2025-12-24T03:53:29.915637+00:00",
        "meta_object_name": "OPS 4947 (TRANSIT 17)",
        "meta_object_id": "1967-092A",
        "meta_epoch": "2025-12-23T01:55:51.648096",
        "meta_mean_motion": 13.53456258,
        "meta_eccentricity": 0.00469498,
        "meta_inclination": 89.2486,
        "meta_ra_of_asc_node": 23.6466,
        "meta_arg_of_pericenter": 203.7716,
        "meta_mean_anomaly": 182.5317,
        "meta_ephemeris_type": 0,
        "meta_classification_type": "U",
        "meta_norad_cat_id": 2965,
        "meta_element_set_no": 999,
        "meta_rev_at_epoch": 87237,
        "meta_bstar": 0.00019191812,
        "meta_mean_motion_dot": 1.41e-06,
        "meta_mean_motion_ddot": 0,
        "tle_line1": "1 02965U 67092A   25357.08045889  .00000141  00000+0  19192-3 0  9990",
        "tle_line2": "2 02965  89.2486  23.6466 0046949 203.7716 182.5317 13.53456258872372"
      },
      "geometry": {
        "type": "Point",
        "coordinates": [
          -153.7960139612968,
          -74.09618036483437
        ]
      }
    },
    {
      "type": "Feature",
      "properties": {
        "norad_id": 3133,
        "name": "OPS 7034 (TRANSIT 18)",
        "group": "nnss",
        "lat": -34.95668097820988,
        "lon": -86.30856759108137,
        "alt_km": 1127.8288773951253,
        "timestamp": "2025-12-24T03:53:29.915650+00:00",
        "meta_object_name": "OPS 7034 (TRANSIT 18)",
        "meta_object_id": "1968-012A",
        "meta_epoch": "2025-12-23T12:55:24.513024",
        "meta_mean_motion": 13.5156815,
        "meta_eccentricity": 0.0074852,
        "meta_inclination": 90.0285,
        "meta_ra_of_asc_node": 273.6697,
        "meta_arg_of_pericenter": 138.088,
        "meta_mean_anomaly": 34.4205,
        "meta_ephemeris_type": 0,
        "meta_classification_type": "U",
        "meta_norad_cat_id": 3133,
        "meta_element_set_no": 999,
        "meta_rev_at_epoch": 57064,
        "meta_bstar": 0.0002104,
        "meta_mean_motion_dot": 1.49e-06,
        "meta_mean_motion_ddot": 0,
        "tle_line1": "1 03133U 68012A   25357.53847816  .00000149  00000+0  21040-3 0  9994",
        "tle_line2": "2 03133  90.0285 273.6697 0074852 138.0880  34.4205 13.51568150570645"
      },
      "geometry": {
        "type": "Point",
        "coordinates": [
          -86.30856759108137,
          -34.95668097820988
        ]
      }
    },
    {
      "type": "Feature",
      "properties": {
        "norad_id": 4507,
        "name": "NNSS 19 (TRANSIT 19)",
        "group": "nnss",
        "lat": -72.72287957209471,
        "lon": -125.44276687339945,
        "alt_km": 961.7744575424185,
        "timestamp": "2025-12-24T03:53:29.915662+00:00",
        "meta_object_name": "NNSS 19 (TRANSIT 19)",
        "meta_object_id": "1970-067A",
        "meta_epoch": "2025-12-23T05:08:36.510144",
        "meta_mean_motion": 13.51317207,
        "meta_eccentricity": 0.01702239,
        "meta_inclination": 90.0049,
        "meta_ra_of_asc_node": 234.541,
        "meta_arg_of_pericenter": 262.7201,
        "meta_mean_anomaly": 95.4575,
        "meta_ephemeris_type": 0,
        "meta_classification_type": "U",
        "meta_norad_cat_id": 4507,
        "meta_element_set_no": 999,
        "meta_rev_at_epoch": 72363,
        "meta_bstar": 0.00015353902,
        "meta_mean_motion_dot": 1.17e-06,
        "meta_mean_motion_ddot": 0,
        "tle_line1": "1 04507U 70067A   25357.21431146  .00000117  00000+0  15354-3 0  9999",
        "tle_line2": "2 04507  90.0049 234.5410 0170223 262.7201  95.4575 13.51317207723630"
      },
      "geometry": {
        "type": "Point",
        "coordinates": [
          -125.44276687339945,
          -72.72287957209471
        ]
      }
    },
    {
      "type": "Feature",
      "properties": {
        "norad_id": 6909,
        "name": "NNSS 20 (TRANSIT 20)",
        "group": "nnss",
        "lat": 73.07434095212227,
        "lon": 74.40992913820203,
        "alt_km": 932.7990458015265,
        "timestamp": "2025-12-24T03:53:29.915673+00:00",
        "meta_object_name": "NNSS 20 (TRANSIT 20)",
        "meta_object_id": "1973-081A",
        "meta_epoch": "2025-12-23T16:52:47.423424",
        "meta_mean_motion": 13.71439948,
        "meta_eccentricity": 0.0156233,
        "meta_inclination": 89.8561,
        "meta_ra_of_asc_node": 254.89,
        "meta_arg_of_pericenter": 45.8278,
        "meta_mean_anomaly": 315.5602,
        "meta_ephemeris_type": 0,
        "meta_classification_type": "U",
        "meta_norad_cat_id": 6909,
        "meta_element_set_no": 999,
        "meta_rev_at_epoch": 80511,
        "meta_bstar": 0.00027862,
        "meta_mean_motion_dot": 2.84e-06,
        "meta_mean_motion_ddot": 0,
        "tle_line1": "1 06909U 73081A   25357.70332666  .00000284  00000+0  27862-3 0  9999",
        "tle_line2": "2 06909  89.8561 254.8900 0156233  45.8278 315.5602 13.71439948805111"
      },
      "geometry": {
        "type": "Point",
        "coordinates": [
          74.40992913820203,
          73.07434095212227
        ]
      }
    },
    {
      "type": "Feature",
      "properties": {
        "norad_id": 10457,
        "name": "TRANSAT",
        "group": "nnss",
        "lat": -14.341473062480253,
        "lon": -101.71743500378369,
        "alt_km": 1065.0815177490977,
        "timestamp": "2025-12-24T03:53:29.915684+00:00",
        "meta_object_name": "TRANSAT",
        "meta_object_id": "1977-106A",
        "meta_epoch": "2025-12-23T12:45:04.486752",
        "meta_mean_motion": 13.48945191,
        "meta_eccentricity": 0.0026382,
        "meta_inclination": 89.6477,
        "meta_ra_of_asc_node": 78.2148,
        "meta_arg_of_pericenter": 158.8355,
        "meta_mean_anomaly": 213.4943,
        "meta_ephemeris_type": 0,
        "meta_classification_type": "U",
        "meta_norad_cat_id": 10457,
        "meta_element_set_no": 999,
        "meta_rev_at_epoch": 36889,
        "meta_bstar": 0.00013061,
        "meta_mean_motion_dot": 9.2e-07,
        "meta_mean_motion_ddot": 0,
        "tle_line1": "1 10457U 77106A   25357.53130193  .00000092  00000+0  13061-3 0  9999",
        "tle_line2": "2 10457  89.6477  78.2148 0026382 158.8355 213.4943 13.48945191368891"
      },
      "geometry": {
        "type": "Point",
        "coordinates": [
          -101.71743500378369,
          -14.341473062480253
        ]
      }
    },
    {
      "type": "Feature",
      "properties": {
        "norad_id": 12458,
        "name": "NOVA 1",
        "group": "nnss",
        "lat": 58.177846844242,
        "lon": -89.01387377119192,
        "alt_km": 1158.3894676537257,
        "timestamp": "2025-12-24T03:53:29.915695+00:00",
        "meta_object_name": "NOVA 1",
        "meta_object_id": "1981-044A",
        "meta_epoch": "2025-12-23T12:48:56.171808",
        "meta_mean_motion": 13.23279641,
        "meta_eccentricity": 0.0015782,
        "meta_inclination": 89.8526,
        "meta_ra_of_asc_node": 91.2327,
        "meta_arg_of_pericenter": 77.4713,
        "meta_mean_anomaly": 293.4259,
        "meta_ephemeris_type": 0,
        "meta_classification_type": "U",
        "meta_norad_cat_id": 12458,
        "meta_element_set_no": 999,
        "meta_rev_at_epoch": 15329,
        "meta_bstar": 0.00020928,
        "meta_mean_motion_dot": 9.8e-07,
        "meta_mean_motion_ddot": 0,
        "tle_line1": "1 12458U 81044A   25357.53398347  .00000098  00000+0  20928-3 0  9991",
        "tle_line2": "2 12458  89.8526  91.2327 0015782  77.4713 293.4259 13.23279641153298"
      },
      "geometry": {
        "type": "Point",
        "coordinates": [
          -89.01387377119192,
          58.177846844242
        ]
      }
    }
  ]
}